2024-105E               
1 59921U 24105E   26080.59586355  .00006901  00000+0  33102-3 0  9997
2 59921  97.5857  97.0819 0012920 161.5390 198.6316 15.19144090 99851
STARLINK-31872          
1 59922U 24106A   26080.55570693  .00007678  00000+0  28808-3 0  9992
2 59922  43.0008 265.8451 0001221 274.2759  85.7953 15.27598740102375
STARLINK-31972          
1 59923U 24106B   26080.53771101  .00000561  00000+0  29907-4 0  9994
2 59923  43.0001 265.7129 0001285 267.9813  92.0891 15.27587430102387
STARLINK-31958          
1 59924U 24106C   26080.47925981  .00001411  00000+0  60815-4 0  9993
2 59924  43.0023 251.4270 0001229 258.8989 101.1724 15.27573623102490
STARLINK-31959          
1 59925U 24106D   26079.85349334  .00000445  00000+0  25703-4 0  9999
2 59925  43.0019 265.6405 0001200 270.7494  89.3220 15.27579506102276
STARLINK-31957          
1 59926U 24106E   26080.50173996  .00001046  00000+0  47548-4 0  9992
2 59926  43.0033 265.4440 0001380 269.9428  90.1266 15.27581160102387
STARLINK-31968          
1 59927U 24106F   26080.57483310 -.00002191  00000+0 -70100-4 0  9998
2 59927  43.0044 265.1364 0001581 267.8030  92.2641 15.27590500102390
STARLINK-31970          
1 59928U 24106G   26080.53386020 -.00000623  00000+0 -13112-4 0  9993
2 59928  42.9997 265.6813 0001583 273.0745  86.9926 15.27576028102388
STARLINK-31932          
1 59929U 24106H   26080.49207511 -.00168508  00000+0 -62698-2 0  9994
2 59929  43.0003 262.6618 0002438 267.1280  92.9292 15.27495425102369
STARLINK-31956          
1 59930U 24106J   26080.52742246 -.00006346  00000+0 -22109-3 0  9994
2 59930  43.0008 265.6361 0001364 275.2641  84.8055 15.27608443102332
STARLINK-31960          
1 59931U 24106K   26080.51202541  .00003876  00000+0  15037-3 0  9998
2 59931  43.0085 265.5217 0003559 265.2216  94.8229 15.27570443102334
STARLINK-31432          
1 59932U 24106L   26080.60438744 -.00082977  00000+0 -30453-2 0  9994
2 59932  42.9982 265.3502 0001347 267.1119  92.9578 15.27519101102330
STARLINK-31853          
1 59933U 24106M   26080.53129069  .00002510  00000+0  10069-3 0  9999
2 59933  42.9973 265.6617 0001344 273.2920  86.7778 15.27586812102332
STARLINK-31971          
1 59934U 24106N   26080.56130457  .00001370  00000+0  59310-4 0  9992
2 59934  43.0031 262.2812 0001250 271.3010  88.7699 15.27584062102255
STARLINK-31962          
1 59936U 24106Q   26080.55312861  .00003071  00000+0  12109-3 0  9998
2 59936  43.0020 265.8242 0001242 273.8676  86.2034 15.27576284102339
STARLINK-31879          
1 59937U 24106R   26080.49802782  .00001279  00000+0  55979-4 0  9999
2 59937  43.0026 266.2708 0001121 269.2172  90.8551 15.27582637102372
STARLINK-31876          
1 59938U 24106S   26080.52358354  .00001405  00000+0  60580-4 0  9990
2 59938  43.0015 265.6062 0001234 254.7092 105.3623 15.27584466102343
STARLINK-31955          
1 59939U 24106T   26080.58125964  .00001334  00000+0  58005-4 0  9996
2 59939  43.0030 265.1817 0001749 286.9399  73.1261 15.27581568102386
STARLINK-31946          
1 59940U 24106U   26080.55955878  .00001249  00000+0  54900-4 0  9995
2 59940  43.0031 265.8718 0001259 275.0362  85.0346 15.27583152 92960
STARLINK-31948          
1 59941U 24106V   26080.55360490  .00003284  00000+0  12875-3 0  9991
2 59941  43.0037 262.2648 0001202 271.4361  88.6353 15.27596399102378
STARLINK-31900          
1 59942U 24106W   26080.57097408  .00001816  00000+0  75504-4 0  9998
2 59942  43.0047 265.0985 0001459 263.4320  96.6365 15.27586798102346
STARLINK-31973          
1 59943U 24106X   26080.21849711  .00001406  00000+0  60600-4 0  9998
2 59943  42.9996 267.6179 0001071 272.4490  87.6239 15.27584188102283
STARLINK-31966          
1 59944U 24106Y   26080.21464213  .00002520  00000+0  10106-3 0  9992
2 59944  42.9998 267.5831 0001553 279.6140  80.4536 15.27579165102332
STARLINK-11145 [DTC]    
1 59945U 24107A   26080.54438388 -.00001333  00000+0 -61340-5 0  9995
2 59945  53.1599 193.1354 0000758  86.2984 273.8120 15.69759490104002
STARLINK-11113 [DTC]    
1 59947U 24107C   26080.54922068 -.00001947  00000+0 -11230-4 0  9993
2 59947  53.1591 192.4214 0000855 341.2115  18.8871 15.69690536104017
STARLINK-11123 [DTC]    
1 59948U 24107D   26079.83424285  .00000685  00000+0  10501-4 0  9998
2 59948  53.1603 196.5224 0000477  81.8454 278.2618 15.69712844103951
STARLINK-11138 [DTC]    
1 59949U 24107E   26080.57863002  .00007218  00000+0  64309-4 0  9990
2 59949  53.1580 192.6205 0001043  87.9830 272.1307 15.69737917104077
STARLINK-11130 [DTC]    
1 59950U 24107F   26080.59334724  .00003278  00000+0  31888-4 0  9996
2 59950  53.1584 192.7224 0000890  97.2056 262.9063 15.69723074104017
STARLINK-11124 [DTC]    
1 59952U 24107H   26080.58353336  .00003733  00000+0  35628-4 0  9999
2 59952  53.1598 192.6591 0000958  94.4867 265.6261 15.69726427104086
