OBJECT_NAME,OBJECT_ID,EPOCH,MEAN_MOTION,ECCENTRICITY,INCLINATION,RA_OF_ASC_NODE,ARG_OF_PERICENTER,MEAN_ANOMALY,EPHEMERIS_TYPE,CLASSIFICATION_TYPE,NORAD_CAT_ID,ELEMENT_SET_NO,REV_AT_EPOCH,BSTAR,MEAN_MOTION_DOT,MEAN_MOTION_DDOT,OBJECT_TYPE
2024-105E,2024-105E,2026-03-21T14:18:02.610720,15.19144090,.00129206,97.5857,97.0819,161.5390,198.6316,0,U,59921,999,9985,.33102325E-3,.6901E-4,0,Active
STARLINK-31872,2024-106A,2026-03-21T13:20:13.078752,15.27598740,.00012216,43.0008,265.8451,274.2759,85.7953,0,U,59922,999,10237,.28807781E-3,.7678E-4,0,Active
STARLINK-31972,2024-106B,2026-03-21T12:54:18.231264,15.27587430,.00012851,43.0001,265.7129,267.9813,92.0891,0,U,59923,999,10238,.29907319E-4,.561E-5,0,Active
STARLINK-31958,2024-106C,2026-03-21T11:30:08.047584,15.27573623,.00012299,43.0023,251.4270,258.8989,101.1724,0,U,59924,999,10249,.60814678E-4,.1411E-4,0,Active
STARLINK-31959,2024-106D,2026-03-20T20:29:01.824576,15.27579506,.00012006,43.0019,265.6405,270.7494,89.3220,0,U,59925,999,10227,.25703321E-4,.445E-5,0,Active
STARLINK-31957,2024-106E,2026-03-21T12:02:30.332544,15.27581160,.00013808,43.0033,265.4440,269.9428,90.1266,0,U,59926,999,10238,.47547913E-4,.1046E-4,0,Active
STARLINK-31968,2024-106F,2026-03-21T13:47:45.579840,15.27590500,.00015814,43.0044,265.1364,267.8030,92.2641,0,U,59927,999,10239,-.70099841E-4,-.2191E-4,0,Active
STARLINK-31970,2024-106G,2026-03-21T12:48:45.521280,15.27576028,.0001583,42.9997,265.6813,273.0745,86.9926,0,U,59928,999,10238,-.13112435E-4,-.623E-5,0,Active
STARLINK-31932,2024-106H,2026-03-21T11:48:35.289504,15.27495425,.00024388,43.0003,262.6618,267.1280,92.9292,0,U,59929,999,10236,-.62697705E-2,-.168508E-2,0,Active
STARLINK-31956,2024-106J,2026-03-21T12:39:29.300544,15.27608443,.00013643,43.0008,265.6361,275.2641,84.8055,0,U,59930,999,10233,-.22109457E-3,-.6346E-4,0,Active
STARLINK-31960,2024-106K,2026-03-21T12:17:18.995424,15.27570443,.00035598,43.0085,265.5217,265.2216,94.8229,0,U,59931,999,10233,.15037294E-3,.3876E-4,0,Active
STARLINK-31432,2024-106L,2026-03-21T14:30:19.074816,15.27519101,.00013476,42.9982,265.3502,267.1119,92.9578,0,U,59932,999,10233,-.30453226E-2,-.82977E-3,0,Active
STARLINK-31853,2024-106M,2026-03-21T12:45:03.515616,15.27586812,.00013448,42.9973,265.6617,273.2920,86.7778,0,U,59933,999,10233,.10069017E-3,.251E-4,0,Active
STARLINK-31971,2024-106N,2026-03-21T13:28:16.714848,15.27584062,.00012505,43.0031,262.2812,271.3010,88.7699,0,U,59934,999,10225,.59310364E-4,.137E-4,0,Active
STARLINK-31962,2024-106Q,2026-03-21T13:16:30.311904,15.27576284,.00012425,43.0020,265.8242,273.8676,86.2034,0,U,59936,999,10233,.12109032E-3,.3071E-4,0,Active
STARLINK-31879,2024-106R,2026-03-21T11:57:09.603648,15.27582637,.0001121,43.0026,266.2708,269.2172,90.8551,0,U,59937,999,10237,.55978529E-4,.1279E-4,0,Active
STARLINK-31876,2024-106S,2026-03-21T12:33:57.617856,15.27584466,.00012349,43.0015,265.6062,254.7092,105.3623,0,U,59938,999,10234,.60579541E-4,.1405E-4,0,Active
STARLINK-31955,2024-106T,2026-03-21T13:57:00.832896,15.27581568,.00017492,43.0030,265.1817,286.9399,73.1261,0,U,59939,999,10238,.58004673E-4,.1334E-4,0,Active
STARLINK-31946,2024-106U,2026-03-21T13:25:45.878592,15.27583152,.0001259,43.0031,265.8718,275.0362,85.0346,0,U,59940,999,9296,.54899657E-4,.1249E-4,0,Active
STARLINK-31948,2024-106V,2026-03-21T13:17:11.463360,15.27596399,.00012028,43.0037,262.2648,271.4361,88.6353,0,U,59941,999,10237,.12874835E-3,.3284E-4,0,Active
STARLINK-31900,2024-106W,2026-03-21T13:42:12.160512,15.27586798,.00014598,43.0047,265.0985,263.4320,96.6365,0,U,59942,999,10234,.75503922E-4,.1816E-4,0,Active
STARLINK-31973,2024-106X,2026-03-21T05:14:38.150304,15.27584188,.00010714,42.9996,267.6179,272.4490,87.6239,0,U,59943,999,10228,.60599555E-4,.1406E-4,0,Active
STARLINK-31966,2024-106Y,2026-03-21T05:09:05.080032,15.27579165,.0001553,42.9998,267.5831,279.6140,80.4536,0,U,59944,999,10233,.10106203E-3,.252E-4,0,Active
STARLINK-11145 [DTC],2024-107A,2026-03-21T13:03:54.767232,15.69759490,.00007584,53.1599,193.1354,86.2984,273.8120,0,U,59945,999,10400,-.6133957E-5,-.1333E-4,0,Active
STARLINK-11113 [DTC],2024-107C,2026-03-21T13:10:52.666752,15.69690536,.00008555,53.1591,192.4214,341.2115,18.8871,0,U,59947,999,10401,-.11229722E-4,-.1947E-4,0,Active
STARLINK-11123 [DTC],2024-107D,2026-03-20T20:01:18.582240,15.69712844,.00004772,53.1603,196.5224,81.8454,278.2618,0,U,59948,999,10395,.10500565E-4,.685E-5,0,Active
STARLINK-11138 [DTC],2024-107E,2026-03-21T13:53:13.633728,15.69737917,.00010435,53.1580,192.6205,87.9830,272.1307,0,U,59949,999,10407,.64309381E-4,.7218E-4,0,Active
STARLINK-11130 [DTC],2024-107F,2026-03-21T14:14:25.201536,15.69723074,.00008906,53.1584,192.7224,97.2056,262.9063,0,U,59950,999,10401,.31888347E-4,.3278E-4,0,Active
STARLINK-11124 [DTC],2024-107H,2026-03-21T14:00:17.282304,15.69726427,.00009583,53.1598,192.6591,94.4867,265.6261,0,U,59952,999,10408,.35627594E-4,.3733E-4,0,Active
